[{"OBJECT_NAME":"STARLINK-5751","OBJECT_ID":"2023-020H","EPOCH":"2026-03-09T22:00:01.999584","MEAN_MOTION":15.10250177,"ECCENTRICITY":0.00017434,"INCLINATION":42.9998,"RA_OF_ASC_NODE":337.1643,"ARG_OF_PERICENTER":301.382,"MEAN_ANOMALY":155.7989,"EPHEMERIS_TYPE":0,"CLASSIFICATION_TYPE":"U","NORAD_CAT_ID":55576,"ELEMENT_SET_NO":999,"REV_AT_EPOCH":573,"BSTAR":0.0021370432,"MEAN_MOTION_DOT":0.00035529,"MEAN_MOTION_DDOT":0},{"OBJECT_NAME":"UNKNOWN","OBJECT_ID":"","EPOCH":"2026-03-04T22:11:39.610464","MEAN_MOTION":14.49090755,"ECCENTRICITY":0.0282259,"INCLINATION":82.0644,"RA_OF_ASC_NODE":144.6703,"ARG_OF_PERICENTER":28.1067,"MEAN_ANOMALY":333.504,"EPHEMERIS_TYPE":0,"CLASSIFICATION_TYPE":"U","NORAD_CAT_ID":89172,"ELEMENT_SET_NO":999,"REV_AT_EPOCH":61378,"BSTAR":0.001137,"MEAN_MOTION_DOT":7.23e-5,"MEAN_MOTION_DDOT":0}]
